IRIDIUM 117             
1 42808U 17039F   20312.76609012  .00000020  00000-0  13818-6 0  9990
2 42808  86.3940 129.2572 0002008 102.9069 257.2351 14.34217789176510
IRIDIUM 126             
1 42809U 17039G   20312.79144237  .00000015  00000-0 -18376-5 0  9995
2 42809  86.3944 129.2660 0001777  91.0915 269.0485 14.34218232176505
IRIDIUM 124             
1 42810U 17039H   20312.78205467  .00000120  00000-0  29607-4 0  9993
2 42810  86.4509  65.9943 0002440 102.9145 257.2329 14.43280521179802
IRIDIUM 128             
1 42811U 17039J   20312.85196801  .00000091  00000-0  25400-4 0  9997
2 42811  86.3982 160.7789 0001221  95.9338 264.1997 14.34218869176531
