<ndm xmlns:xsi="http://www.w3.org/2001/XMLSchema-instance" xsi:noNamespaceSchemaLocation="http://sanaregistry.org/r/ndmxml/ndmxml-1.0-master.xsd">
<omm id="CCSDS_OMM_VERS" version="2.0">
<header>
<COMMENT>GENERATED VIA SPACE-TRACK.ORG API</COMMENT>
<CREATION_DATE>2020-11-08T05:03:59</CREATION_DATE>
<ORIGINATOR>18 SPCS</ORIGINATOR>
</header>
<body>
<segment>
<metadata>
<OBJECT_NAME>IRIDIUM 117</OBJECT_NAME>
<OBJECT_ID>2017-039F</OBJECT_ID>
<CENTER_NAME>EARTH</CENTER_NAME>
<REF_FRAME>TEME</REF_FRAME>
<TIME_SYSTEM>UTC</TIME_SYSTEM>
<MEAN_ELEMENT_THEORY>SGP4</MEAN_ELEMENT_THEORY>
</metadata>
<data>
<meanElements>
<EPOCH>2020-11-07T18:23:10.186368</EPOCH>
<MEAN_MOTION>14.34217789</MEAN_MOTION>
<ECCENTRICITY>0.00020080</ECCENTRICITY>
<INCLINATION>86.3940</INCLINATION>
<RA_OF_ASC_NODE>129.2572</RA_OF_ASC_NODE>
<ARG_OF_PERICENTER>102.9069</ARG_OF_PERICENTER>
<MEAN_ANOMALY>257.2351</MEAN_ANOMALY>
</meanElements>
<tleParameters>
<EPHEMERIS_TYPE>0</EPHEMERIS_TYPE>
<CLASSIFICATION_TYPE>U</CLASSIFICATION_TYPE>
<NORAD_CAT_ID>42808</NORAD_CAT_ID>
<ELEMENT_SET_NO>999</ELEMENT_SET_NO>
<REV_AT_EPOCH>17651</REV_AT_EPOCH>
<BSTAR>0.00000013818000</BSTAR>
<MEAN_MOTION_DOT>0.00000020</MEAN_MOTION_DOT>
<MEAN_MOTION_DDOT>0.0000000000000</MEAN_MOTION_DDOT>
</tleParameters>
<userDefinedParameters>
<USER_DEFINED parameter="SEMIMAJOR_AXIS">7155.804</USER_DEFINED>
<USER_DEFINED parameter="PERIOD">100.403</USER_DEFINED>
<USER_DEFINED parameter="APOAPSIS">779.105</USER_DEFINED>
<USER_DEFINED parameter="PERIAPSIS">776.232</USER_DEFINED>
<USER_DEFINED parameter="OBJECT_TYPE">PAYLOAD</USER_DEFINED>
<USER_DEFINED parameter="RCS_SIZE">LARGE</USER_DEFINED>
<USER_DEFINED parameter="COUNTRY_CODE">US</USER_DEFINED>
<USER_DEFINED parameter="LAUNCH_DATE">2017-06-25</USER_DEFINED>
<USER_DEFINED parameter="SITE">AFWTR</USER_DEFINED>
<USER_DEFINED parameter="DECAY_DATE"/>
<USER_DEFINED parameter="DECAYED"/>
<USER_DEFINED parameter="FILE">2875047</USER_DEFINED>
<USER_DEFINED parameter="GP_ID">165125275</USER_DEFINED>
</userDefinedParameters>
</data>
</segment>
</body>
</omm>
<omm id="CCSDS_OMM_VERS" version="2.0">
<header>
<COMMENT>GENERATED VIA SPACE-TRACK.ORG API</COMMENT>
<CREATION_DATE>2020-11-08T05:03:59</CREATION_DATE>
<ORIGINATOR>18 SPCS</ORIGINATOR>
</header>
<body>
<segment>
<metadata>
<OBJECT_NAME>IRIDIUM 126</OBJECT_NAME>
<OBJECT_ID>2017-039G</OBJECT_ID>
<CENTER_NAME>EARTH</CENTER_NAME>
<REF_FRAME>TEME</REF_FRAME>
<TIME_SYSTEM>UTC</TIME_SYSTEM>
<MEAN_ELEMENT_THEORY>SGP4</MEAN_ELEMENT_THEORY>
</metadata>
<data>
<meanElements>
<EPOCH>2020-11-07T18:59:40.620768</EPOCH>
<MEAN_MOTION>14.34218232</MEAN_MOTION>
<ECCENTRICITY>0.00017770</ECCENTRICITY>
<INCLINATION>86.3944</INCLINATION>
<RA_OF_ASC_NODE>129.2660</RA_OF_ASC_NODE>
<ARG_OF_PERICENTER>91.0915</ARG_OF_PERICENTER>
<MEAN_ANOMALY>269.0485</MEAN_ANOMALY>
</meanElements>
<tleParameters>
<EPHEMERIS_TYPE>0</EPHEMERIS_TYPE>
<CLASSIFICATION_TYPE>U</CLASSIFICATION_TYPE>
<NORAD_CAT_ID>42809</NORAD_CAT_ID>
<ELEMENT_SET_NO>999</ELEMENT_SET_NO>
<REV_AT_EPOCH>17650</REV_AT_EPOCH>
<BSTAR>-0.00000183760000</BSTAR>
<MEAN_MOTION_DOT>0.00000015</MEAN_MOTION_DOT>
<MEAN_MOTION_DDOT>0.0000000000000</MEAN_MOTION_DDOT>
</tleParameters>
<userDefinedParameters>
<USER_DEFINED parameter="SEMIMAJOR_AXIS">7155.802</USER_DEFINED>
<USER_DEFINED parameter="PERIOD">100.403</USER_DEFINED>
<USER_DEFINED parameter="APOAPSIS">778.939</USER_DEFINED>
<USER_DEFINED parameter="PERIAPSIS">776.395</USER_DEFINED>
<USER_DEFINED parameter="OBJECT_TYPE">PAYLOAD</USER_DEFINED>
<USER_DEFINED parameter="RCS_SIZE">LARGE</USER_DEFINED>
<USER_DEFINED parameter="COUNTRY_CODE">US</USER_DEFINED>
<USER_DEFINED parameter="LAUNCH_DATE">2017-06-25</USER_DEFINED>
<USER_DEFINED parameter="SITE">AFWTR</USER_DEFINED>
<USER_DEFINED parameter="DECAY_DATE"/>
<USER_DEFINED parameter="DECAYED"/>
<USER_DEFINED parameter="FILE">2875047</USER_DEFINED>
<USER_DEFINED parameter="GP_ID">165127197</USER_DEFINED>
</userDefinedParameters>
</data>
</segment>
</body>
</omm>
<omm id="CCSDS_OMM_VERS" version="2.0">
<header>
<COMMENT>GENERATED VIA SPACE-TRACK.ORG API</COMMENT>
<CREATION_DATE>2020-11-08T05:03:59</CREATION_DATE>
<ORIGINATOR>18 SPCS</ORIGINATOR>
</header>
<body>
<segment>
<metadata>
<OBJECT_NAME>IRIDIUM 124</OBJECT_NAME>
<OBJECT_ID>2017-039H</OBJECT_ID>
<CENTER_NAME>EARTH</CENTER_NAME>
<REF_FRAME>TEME</REF_FRAME>
<TIME_SYSTEM>UTC</TIME_SYSTEM>
<MEAN_ELEMENT_THEORY>SGP4</MEAN_ELEMENT_THEORY>
</metadata>
<data>
<meanElements>
<EPOCH>2020-11-07T18:46:09.523488</EPOCH>
<MEAN_MOTION>14.43280521</MEAN_MOTION>
<ECCENTRICITY>0.00024400</ECCENTRICITY>
<INCLINATION>86.4509</INCLINATION>
<RA_OF_ASC_NODE>65.9943</RA_OF_ASC_NODE>
<ARG_OF_PERICENTER>102.9145</ARG_OF_PERICENTER>
<MEAN_ANOMALY>257.2329</MEAN_ANOMALY>
</meanElements>
<tleParameters>
<EPHEMERIS_TYPE>0</EPHEMERIS_TYPE>
<CLASSIFICATION_TYPE>U</CLASSIFICATION_TYPE>
<NORAD_CAT_ID>42810</NORAD_CAT_ID>
<ELEMENT_SET_NO>999</ELEMENT_SET_NO>
<REV_AT_EPOCH>17980</REV_AT_EPOCH>
<BSTAR>0.00002960700000</BSTAR>
<MEAN_MOTION_DOT>0.00000120</MEAN_MOTION_DOT>
<MEAN_MOTION_DDOT>0.0000000000000</MEAN_MOTION_DDOT>
</tleParameters>
<userDefinedParameters>
<USER_DEFINED parameter="SEMIMAJOR_AXIS">7125.817</USER_DEFINED>
<USER_DEFINED parameter="PERIOD">99.772</USER_DEFINED>
<USER_DEFINED parameter="APOAPSIS">749.420</USER_DEFINED>
<USER_DEFINED parameter="PERIAPSIS">745.943</USER_DEFINED>
<USER_DEFINED parameter="OBJECT_TYPE">PAYLOAD</USER_DEFINED>
<USER_DEFINED parameter="RCS_SIZE">LARGE</USER_DEFINED>
<USER_DEFINED parameter="COUNTRY_CODE">US</USER_DEFINED>
<USER_DEFINED parameter="LAUNCH_DATE">2017-06-25</USER_DEFINED>
<USER_DEFINED parameter="SITE">AFWTR</USER_DEFINED>
<USER_DEFINED parameter="DECAY_DATE"/>
<USER_DEFINED parameter="DECAYED"/>
<USER_DEFINED parameter="FILE">2875047</USER_DEFINED>
<USER_DEFINED parameter="GP_ID">165126589</USER_DEFINED>
</userDefinedParameters>
</data>
</segment>
</body>
</omm>
<omm id="CCSDS_OMM_VERS" version="2.0">
<header>
<COMMENT>GENERATED VIA SPACE-TRACK.ORG API</COMMENT>
<CREATION_DATE>2020-11-07T22:36:10</CREATION_DATE>
<ORIGINATOR>18 SPCS</ORIGINATOR>
</header>
<body>
<segment>
<metadata>
<OBJECT_NAME>IRIDIUM 128</OBJECT_NAME>
<OBJECT_ID>2017-039J</OBJECT_ID>
<CENTER_NAME>EARTH</CENTER_NAME>
<REF_FRAME>TEME</REF_FRAME>
<TIME_SYSTEM>UTC</TIME_SYSTEM>
<MEAN_ELEMENT_THEORY>SGP4</MEAN_ELEMENT_THEORY>
</metadata>
<data>
<meanElements>
<EPOCH>2020-11-07T20:26:50.036064</EPOCH>
<MEAN_MOTION>14.34218869</MEAN_MOTION>
<ECCENTRICITY>0.00012210</ECCENTRICITY>
<INCLINATION>86.3982</INCLINATION>
<RA_OF_ASC_NODE>160.7789</RA_OF_ASC_NODE>
<ARG_OF_PERICENTER>95.9338</ARG_OF_PERICENTER>
<MEAN_ANOMALY>264.1997</MEAN_ANOMALY>
</meanElements>
<tleParameters>
<EPHEMERIS_TYPE>0</EPHEMERIS_TYPE>
<CLASSIFICATION_TYPE>U</CLASSIFICATION_TYPE>
<NORAD_CAT_ID>42811</NORAD_CAT_ID>
<ELEMENT_SET_NO>999</ELEMENT_SET_NO>
<REV_AT_EPOCH>17653</REV_AT_EPOCH>
<BSTAR>0.00002540000000</BSTAR>
<MEAN_MOTION_DOT>0.00000091</MEAN_MOTION_DOT>
<MEAN_MOTION_DDOT>0.0000000000000</MEAN_MOTION_DDOT>
</tleParameters>
<userDefinedParameters>
<USER_DEFINED parameter="SEMIMAJOR_AXIS">7155.800</USER_DEFINED>
<USER_DEFINED parameter="PERIOD">100.403</USER_DEFINED>
<USER_DEFINED parameter="APOAPSIS">778.539</USER_DEFINED>
<USER_DEFINED parameter="PERIAPSIS">776.791</USER_DEFINED>
<USER_DEFINED parameter="OBJECT_TYPE">PAYLOAD</USER_DEFINED>
<USER_DEFINED parameter="RCS_SIZE">LARGE</USER_DEFINED>
<USER_DEFINED parameter="COUNTRY_CODE">US</USER_DEFINED>
<USER_DEFINED parameter="LAUNCH_DATE">2017-06-25</USER_DEFINED>
<USER_DEFINED parameter="SITE">AFWTR</USER_DEFINED>
<USER_DEFINED parameter="DECAY_DATE"/>
<USER_DEFINED parameter="DECAYED"/>
<USER_DEFINED parameter="FILE">2874887</USER_DEFINED>
<USER_DEFINED parameter="GP_ID">165104671</USER_DEFINED>
</userDefinedParameters>
</data>
</segment>
</body>
</omm>

</ndm>